[
    {
        "Altitude(m)": 607895.857108152,
        "Argument of Periapsis(deg)": 0.0,
        "Eccentricity": 0.0,
        "Inclination(deg)": 60.0,
        "Latitude(deg)": 40.99844718850363,
        "Longitude(deg)": 80.08862358181193,
        "Mean Anomaly(deg)": 130.9091,
        "RAAN(deg)": 30.0,
        "Satellite Name": "Test1 140",
        "Satellite Number": 140,
        "Semi-Major Axis(m)": 6980739.136638005,
        "Time(s)": 0
    },
    {
        "Altitude(m)": 607795.1699339172,
        "Argument of Periapsis(deg)": 0.00010418945913296404,
        "Eccentricity": 0.0,
        "Inclination(deg)": 60.0,
        "Latitude(deg)": 40.53077167491061,
        "Longitude(deg)": 80.58521856959152,
        "Mean Anomaly(deg)": 131.5292061454618,
        "RAAN(deg)": 29.99957995086026,
        "Satellite Name": "Test1 140",
        "Satellite Number": 140,
        "Semi-Major Axis(m)": 6980739.136638005,
        "Time(s)": 10
    }
]